STARLINK-30343          
1 57753U 23131X   26068.33307533 -.00000076  00000+0  94589-5 0  9999
2 57753  43.0041 173.4600 0001130 258.5463 101.5252 15.02534143139872
KUIPER-00139            
1 65765U 25217D   26068.30974975  .00011274  00000+0  87196-3 0  9990
2 65765  51.8865  35.5400 0007119 318.9010  41.1425 15.01890214 24959
